2026-052E               
1 68202U 26052E   26089.19697353  .00009833  00000+0  60050-3 0  9997
2 68202  97.5373 165.2310 0010828 217.0828 142.9655 15.10449174  2122
2026-052F               
1 68203U 26052F   26089.19463505  .00009842  00000+0  59692-3 0  9998
2 68203  97.5359 165.2373 0010131 208.8254 151.2417 15.10704475  2121
2026-052G               
1 68204U 26052G   26089.19418334  .00009620  00000+0  58286-3 0  9991
2 68204  97.5375 165.2335 0009697 211.8015 148.2630 15.10752029  2123
KZ-11 R/B               
1 68205U 26052H   26089.20013784  .00033452  20057-5  49972-3 0  9996
2 68205  97.3416 164.3972 0545607 327.5336  29.3363 14.67324004  2066
2026-052J               
1 68206U 26052J   26089.19605874  .00091601  31337-5  13372-2 0  9999
2 68206  97.3418 164.4016 0542111 327.5681  29.3250 14.68303158  2062
STARLINK-36986          
1 68207U 26053A   26089.16668981 -.00034639  00000+0 -18062-3 0  9995
2 68207  97.2843 324.4268 0001574  86.6347 198.6349 15.80838672  3302
STARLINK-37009          
1 68208U 26053B   26089.16668981 -.00029901  00000+0 -15575-3 0  9998
2 68208  97.2843 324.4289 0001491  79.8125 209.7385 15.80836089  3306
STARLINK-36948          
1 68209U 26053C   26089.16668981  .00022119  00000+0  11607-3 0  9993
2 68209  97.2844 324.4299 0001459 113.3778 180.4642 15.80787534  3199
STARLINK-37119          
1 68210U 26053D   26089.16668981  .00015165  00000+0  79798-4 0  9994
2 68210  97.2843 324.4325 0001372 107.5752 190.5289 15.80809269  3303
STARLINK-37120          
1 68211U 26053E   26089.16668981 -.00026587  00000+0 -13839-3 0  9990
2 68211  97.2844 324.4331 0001397  87.3866 214.9854 15.80829643  3284
STARLINK-37117          
1 68212U 26053F   26089.16668981  .00012491  00000+0  65854-4 0  9993
2 68212  97.2844 324.4353 0001419  99.0819 207.5612 15.80816930  3300
STARLINK-37116          
1 68213U 26053G   26089.16668981  .00016776  00000+0  88188-4 0  9999
2 68213  97.2845 324.4376 0001507  96.6859 214.2381 15.80807209  3309
STARLINK-35854          
1 68214U 26053H   26089.16668981  .00000136  00000+0  14481-5 0  9999
2 68214  97.2846 324.4399 0001238  96.7234 218.4716 15.80813429  3067
STARLINK-36272          
1 68215U 26053J   26089.16668981 -.00015942  00000+0 -82606-4 0  9996
2 68215  97.2843 324.4404 0001571  97.4186 222.0455 15.80823499  3199
STARLINK-37014          
1 68216U 26053K   26089.16668981 -.00016578  00000+0 -85917-4 0  9991
2 68216  97.2844 324.4426 0001658 102.3766 221.3633 15.80828106  3304
STARLINK-37011          
1 68217U 26053L   26089.16668981  .00042741  00000+0  22309-3 0  9996
2 68217  97.2842 324.4445 0001428 105.3433 222.6865 15.80785642  3301
