[{"OBJECT_NAME":"2026-052E","OBJECT_ID":"2026-052E","EPOCH":"2026-03-30T04:43:38.512992","MEAN_MOTION":15.10449174,"ECCENTRICITY":0.0010828,"INCLINATION":97.5373,"RA_OF_ASC_NODE":165.231,"ARG_OF_PERICENTER":217.0828,"MEAN_ANOMALY":142.9655,"EPHEMERIS_TYPE":0,"CLASSIFICATION_TYPE":"U","NORAD_CAT_ID":68202,"ELEMENT_SET_NO":999,"REV_AT_EPOCH":212,"BSTAR":0.0006005,"MEAN_MOTION_DOT":9.833e-5,"MEAN_MOTION_DDOT":0},{"OBJECT_NAME":"2026-052F","OBJECT_ID":"2026-052F","EPOCH":"2026-03-30T04:40:16.468320","MEAN_MOTION":15.10704475,"ECCENTRICITY":0.0010131,"INCLINATION":97.5359,"RA_OF_ASC_NODE":165.2373,"ARG_OF_PERICENTER":208.8254,"MEAN_ANOMALY":151.2417,"EPHEMERIS_TYPE":0,"CLASSIFICATION_TYPE":"U","NORAD_CAT_ID":68203,"ELEMENT_SET_NO":999,"REV_AT_EPOCH":212,"BSTAR":0.00059692,"MEAN_MOTION_DOT":9.842e-5,"MEAN_MOTION_DDOT":0},{"OBJECT_NAME":"2026-052G","OBJECT_ID":"2026-052G","EPOCH":"2026-03-30T04:39:37.440576","MEAN_MOTION":15.10752029,"ECCENTRICITY":0.0009697,"INCLINATION":97.5375,"RA_OF_ASC_NODE":165.2335,"ARG_OF_PERICENTER":211.8015,"MEAN_ANOMALY":148.263,"EPHEMERIS_TYPE":0,"CLASSIFICATION_TYPE":"U","NORAD_CAT_ID":68204,"ELEMENT_SET_NO":999,"REV_AT_EPOCH":212,"BSTAR":0.00058286,"MEAN_MOTION_DOT":9.62e-5,"MEAN_MOTION_DDOT":0},{"OBJECT_NAME":"KZ-11 R/B","OBJECT_ID":"2026-052H","EPOCH":"2026-03-30T04:48:11.909376","MEAN_MOTION":14.67324004,"ECCENTRICITY":0.0545607,"INCLINATION":97.3416,"RA_OF_ASC_NODE":164.3972,"ARG_OF_PERICENTER":327.5336,"MEAN_ANOMALY":29.3363,"EPHEMERIS_TYPE":0,"CLASSIFICATION_TYPE":"U","NORAD_CAT_ID":68205,"ELEMENT_SET_NO":999,"REV_AT_EPOCH":206,"BSTAR":0.00049972,"MEAN_MOTION_DOT":0.00033452,"MEAN_MOTION_DDOT":2.0057e-6},{"OBJECT_NAME":"2026-052J","OBJECT_ID":"2026-052J","EPOCH":"2026-03-30T04:42:19.475136","MEAN_MOTION":14.68303158,"ECCENTRICITY":0.0542111,"INCLINATION":97.3418,"RA_OF_ASC_NODE":164.4016,"ARG_OF_PERICENTER":327.5681,"MEAN_ANOMALY":29.325,"EPHEMERIS_TYPE":0,"CLASSIFICATION_TYPE":"U","NORAD_CAT_ID":68206,"ELEMENT_SET_NO":999,"REV_AT_EPOCH":206,"BSTAR":0.0013372,"MEAN_MOTION_DOT":0.00091601,"MEAN_MOTION_DDOT":3.1337e-6},{"OBJECT_NAME":"STARLINK-36986","OBJECT_ID":"2026-053A","EPOCH":"2026-03-30T04:00:01.999584","MEAN_MOTION":15.80838672,"ECCENTRICITY":0.0001574,"INCLINATION":97.2843,"RA_OF_ASC_NODE":324.4268,"ARG_OF_PERICENTER":86.6347,"MEAN_ANOMALY":198.6349,"EPHEMERIS_TYPE":0,"CLASSIFICATION_TYPE":"U","NORAD_CAT_ID":68207,"ELEMENT_SET_NO":999,"REV_AT_EPOCH":330,"BSTAR":-0.00018062,"MEAN_MOTION_DOT":-0.00034639,"MEAN_MOTION_DDOT":0},{"OBJECT_NAME":"STARLINK-37009","OBJECT_ID":"2026-053B","EPOCH":"2026-03-30T04:00:01.999584","MEAN_MOTION":15.80836089,"ECCENTRICITY":0.0001491,"INCLINATION":97.2843,"RA_OF_ASC_NODE":324.4289,"ARG_OF_PERICENTER":79.8125,"MEAN_ANOMALY":209.7385,"EPHEMERIS_TYPE":0,"CLASSIFICATION_TYPE":"U","NORAD_CAT_ID":68208,"ELEMENT_SET_NO":999,"REV_AT_EPOCH":330,"BSTAR":-0.00015575,"MEAN_MOTION_DOT":-0.00029901,"MEAN_MOTION_DDOT":0},{"OBJECT_NAME":"STARLINK-36948","OBJECT_ID":"2026-053C","EPOCH":"2026-03-30T04:00:01.999584","MEAN_MOTION":15.80787534,"ECCENTRICITY":0.0001459,"INCLINATION":97.2844,"RA_OF_ASC_NODE":324.4299,"ARG_OF_PERICENTER":113.3778,"MEAN_ANOMALY":180.4642,"EPHEMERIS_TYPE":0,"CLASSIFICATION_TYPE":"U","NORAD_CAT_ID":68209,"ELEMENT_SET_NO":999,"REV_AT_EPOCH":319,"BSTAR":0.00011607,"MEAN_MOTION_DOT":0.00022119,"MEAN_MOTION_DDOT":0},{"OBJECT_NAME":"STARLINK-37119","OBJECT_ID":"2026-053D","EPOCH":"2026-03-30T04:00:01.999584","MEAN_MOTION":15.80809269,"ECCENTRICITY":0.0001372,"INCLINATION":97.2843,"RA_OF_ASC_NODE":324.4325,"ARG_OF_PERICENTER":107.5752,"MEAN_ANOMALY":190.5289,"EPHEMERIS_TYPE":0,"CLASSIFICATION_TYPE":"U","NORAD_CAT_ID":68210,"ELEMENT_SET_NO":999,"REV_AT_EPOCH":330,"BSTAR":7.9798e-5,"MEAN_MOTION_DOT":0.00015165,"MEAN_MOTION_DDOT":0},{"OBJECT_NAME":"STARLINK-37120","OBJECT_ID":"2026-053E","EPOCH":"2026-03-30T04:00:01.999584","MEAN_MOTION":15.80829643,"ECCENTRICITY":0.0001397,"INCLINATION":97.2844,"RA_OF_ASC_NODE":324.4331,"ARG_OF_PERICENTER":87.3866,"MEAN_ANOMALY":214.9854,"EPHEMERIS_TYPE":0,"CLASSIFICATION_TYPE":"U","NORAD_CAT_ID":68211,"ELEMENT_SET_NO":999,"REV_AT_EPOCH":328,"BSTAR":-0.00013839,"MEAN_MOTION_DOT":-0.00026587,"MEAN_MOTION_DDOT":0},{"OBJECT_NAME":"STARLINK-37117","OBJECT_ID":"2026-053F","EPOCH":"2026-03-30T04:00:01.999584","MEAN_MOTION":15.8081693,"ECCENTRICITY":0.0001419,"INCLINATION":97.2844,"RA_OF_ASC_NODE":324.4353,"ARG_OF_PERICENTER":99.0819,"MEAN_ANOMALY":207.5612,"EPHEMERIS_TYPE":0,"CLASSIFICATION_TYPE":"U","NORAD_CAT_ID":68212,"ELEMENT_SET_NO":999,"REV_AT_EPOCH":330,"BSTAR":6.5854e-5,"MEAN_MOTION_DOT":0.00012491,"MEAN_MOTION_DDOT":0},{"OBJECT_NAME":"STARLINK-37116","OBJECT_ID":"2026-053G","EPOCH":"2026-03-30T04:00:01.999584","MEAN_MOTION":15.80807209,"ECCENTRICITY":0.0001507,"INCLINATION":97.2845,"RA_OF_ASC_NODE":324.4376,"ARG_OF_PERICENTER":96.6859,"MEAN_ANOMALY":214.2381,"EPHEMERIS_TYPE":0,"CLASSIFICATION_TYPE":"U","NORAD_CAT_ID":68213,"ELEMENT_SET_NO":999,"REV_AT_EPOCH":330,"BSTAR":8.8188e-5,"MEAN_MOTION_DOT":0.00016776,"MEAN_MOTION_DDOT":0},{"OBJECT_NAME":"STARLINK-35854","OBJECT_ID":"2026-053H","EPOCH":"2026-03-30T04:00:01.999584","MEAN_MOTION":15.80813429,"ECCENTRICITY":0.0001238,"INCLINATION":97.2846,"RA_OF_ASC_NODE":324.4399,"ARG_OF_PERICENTER":96.7234,"MEAN_ANOMALY":218.4716,"EPHEMERIS_TYPE":0,"CLASSIFICATION_TYPE":"U","NORAD_CAT_ID":68214,"ELEMENT_SET_NO":999,"REV_AT_EPOCH":306,"BSTAR":1.4481e-6,"MEAN_MOTION_DOT":1.36e-6,"MEAN_MOTION_DDOT":0},{"OBJECT_NAME":"STARLINK-36272","OBJECT_ID":"2026-053J","EPOCH":"2026-03-30T04:00:01.999584","MEAN_MOTION":15.80823499,"ECCENTRICITY":0.0001571,"INCLINATION":97.2843,"RA_OF_ASC_NODE":324.4404,"ARG_OF_PERICENTER":97.4186,"MEAN_ANOMALY":222.0455,"EPHEMERIS_TYPE":0,"CLASSIFICATION_TYPE":"U","NORAD_CAT_ID":68215,"ELEMENT_SET_NO":999,"REV_AT_EPOCH":319,"BSTAR":-8.2606e-5,"MEAN_MOTION_DOT":-0.00015942,"MEAN_MOTION_DDOT":0},{"OBJECT_NAME":"STARLINK-37014","OBJECT_ID":"2026-053K","EPOCH":"2026-03-30T04:00:01.999584","MEAN_MOTION":15.80828106,"ECCENTRICITY":0.0001658,"INCLINATION":97.2844,"RA_OF_ASC_NODE":324.4426,"ARG_OF_PERICENTER":102.3766,"MEAN_ANOMALY":221.3633,"EPHEMERIS_TYPE":0,"CLASSIFICATION_TYPE":"U","NORAD_CAT_ID":68216,"ELEMENT_SET_NO":999,"REV_AT_EPOCH":330,"BSTAR":-8.5917e-5,"MEAN_MOTION_DOT":-0.00016578,"MEAN_MOTION_DDOT":0},{"OBJECT_NAME":"STARLINK-37011","OBJECT_ID":"2026-053L","EPOCH":"2026-03-30T04:00:01.999584","MEAN_MOTION":15.80785642,"ECCENTRICITY":0.0001428,"INCLINATION":97.2842,"RA_OF_ASC_NODE":324.4445,"ARG_OF_PERICENTER":105.3433,"MEAN_ANOMALY":222.6865,"EPHEMERIS_TYPE":0,"CLASSIFICATION_TYPE":"U","NORAD_CAT_ID":68217,"ELEMENT_SET_NO":999,"REV_AT_EPOCH":330,"BSTAR":0.00022309,"MEAN_MOTION_DOT":0.00042741,"MEAN_MOTION_DDOT":0}]
